[
  {
    "storn": "STN004",
    "name": "Harborview Estates",
    "houseNumber": "22A",
    "addressLine1": "Queensway",
    "addressLine3": "Birmingham",
    "postcode": "B2 4ND",
    "phoneNumber": "01214567890",
    "emailAddress": "info@harborviewestates.co.uk",
    "agentId": "AGT001",
    "isAuthorised": 1
  },
  {
    "storn": "STN004",
    "name": "Sunrise Realty",
    "houseNumber": "8B",
    "addressLine1": "Baker Street",
    "addressLine3": "Manchester",
    "postcode": "M1 2AB",
    "phoneNumber": "01611234567",
    "emailAddress": "contact@sunriserealty.co.uk",
    "agentId": "AGT002",
    "isAuthorised": 1
  },
  {
    "storn": "STN004",
    "name": "Willow Property Group",
    "houseNumber": "14",
    "addressLine1": "Church Road",
    "addressLine3": "Leeds",
    "postcode": "LS2 7BT",
    "phoneNumber": "01134561234",
    "emailAddress": "support@willowpg.co.uk",
    "agentId": "AGT003",
    "isAuthorised": 1
  },
  {
    "storn": "STN004",
    "name": "Elm Street Agents",
    "houseNumber": "77",
    "addressLine1": "Elm Street",
    "addressLine3": "Liverpool",
    "postcode": "L1 3DF",
    "phoneNumber": "01517991234",
    "emailAddress": "hello@elmstreetagents.co.uk",
    "agentId": "AGT004",
    "isAuthorised": 1
  },
  {
    "storn": "STN004",
    "name": "Parkview Property Consultants",
    "houseNumber": "33",
    "addressLine1": "High Street",
    "addressLine3": "Bristol",
    "postcode": "BS1 4AA",
    "phoneNumber": "01179876543",
    "emailAddress": "info@parkviewpc.co.uk",
    "agentId": "AGT005",
    "isAuthorised": 0
  },
  {
    "storn": "STN004",
    "name": "Riverside Homes Ltd",
    "houseNumber": "101",
    "addressLine1": "Bridge Street",
    "addressLine3": "Newcastle",
    "postcode": "NE1 6BN",
    "phoneNumber": "01911234567",
    "emailAddress": "office@riversidehomes.co.uk",
    "agentId": "AGT006",
    "isAuthorised": 1
  },
  {
    "storn": "STN004",
    "name": "Maple Estates",
    "houseNumber": "9",
    "addressLine1": "Kingâ€™s Road",
    "addressLine3": "London",
    "postcode": "SW3 4QP",
    "phoneNumber": "02071234567",
    "emailAddress": "admin@mapleestates.co.uk",
    "agentId": "AGT007",
    "isAuthorised": 1
  },
  {
    "storn": "STN004",
    "name": "Northpoint Property Group",
    "houseNumber": "42",
    "addressLine1": "Abbey Lane",
    "addressLine3": "Sheffield",
    "postcode": "S7 2QE",
    "phoneNumber": "01142345678",
    "emailAddress": "contact@northpointpg.co.uk",
    "agentId": "AGT008",
    "isAuthorised": 1
  },
  {
    "storn": "STN004",
    "name": "Lakeside Realty",
    "houseNumber": "5",
    "addressLine1": "Lake View Road",
    "addressLine3": "Nottingham",
    "postcode": "NG1 3DF",
    "phoneNumber": "01159876543",
    "emailAddress": "info@lakesiderealty.co.uk",
    "agentId": "AGT009",
    "isAuthorised": 0
  },
  {
    "storn": "STN004",
    "name": "Oakwood Property Management",
    "houseNumber": "18",
    "addressLine1": "Station Road",
    "addressLine3": "Reading",
    "postcode": "RG1 8AB",
    "phoneNumber": "01189223344",
    "emailAddress": "enquiries@oakwoodpm.co.uk",
    "agentId": "AGT010",
    "isAuthorised": 1
  },
  {
    "storn": "STN004",
    "name": "Skyline Estates",
    "houseNumber": "24",
    "addressLine1": "Hilltop Drive",
    "addressLine3": "Leicester",
    "postcode": "LE2 1DF",
    "phoneNumber": "01162224455",
    "emailAddress": "team@skylineestates.co.uk",
    "agentId": "AGT011",
    "isAuthorised": 1
  },
  {
    "storn": "STN004",
    "name": "Westfield Properties",
    "houseNumber": "19C",
    "addressLine1": "Oxford Street",
    "addressLine3": "London",
    "postcode": "W1D 2AN",
    "phoneNumber": "02075556677",
    "emailAddress": "info@westfieldprops.co.uk",
    "agentId": "AGT012",
    "isAuthorised": 1
  },
  {
    "storn": "STN004",
    "name": "Cedar Grove Agents",
    "houseNumber": "11",
    "addressLine1": "Victoria Avenue",
    "addressLine3": "Leeds",
    "postcode": "LS1 3AJ",
    "phoneNumber": "01134445566",
    "emailAddress": "support@cedargrove.co.uk",
    "agentId": "AGT013",
    "isAuthorised": 0
  },
  {
    "storn": "STN004",
    "name": "Ashworth Realty",
    "houseNumber": "6",
    "addressLine1": "Queens Park Road",
    "addressLine3": "Brighton",
    "postcode": "BN2 0GH",
    "phoneNumber": "01273456789",
    "emailAddress": "hello@ashworthrealty.co.uk",
    "agentId": "AGT014",
    "isAuthorised": 1
  },
  {
    "storn": "STN004",
    "name": "Southgate Homes",
    "houseNumber": "55",
    "addressLine1": "London Road",
    "addressLine3": "Derby",
    "postcode": "DE1 1XX",
    "phoneNumber": "01332233445",
    "emailAddress": "sales@southgatehomes.co.uk",
    "agentId": "AGT015",
    "isAuthorised": 1
  },
  {
    "storn": "STN004",
    "name": "Bridgeview Property Partners",
    "houseNumber": "29",
    "addressLine1": "Mill Lane",
    "addressLine3": "York",
    "postcode": "YO1 8BL",
    "phoneNumber": "01904678901",
    "emailAddress": "team@bridgeviewpp.co.uk",
    "agentId": "AGT016",
    "isAuthorised": 0
  },
  {
    "storn": "STN004",
    "name": "Granite Estates",
    "houseNumber": "10",
    "addressLine1": "Union Street",
    "addressLine3": "Aberdeen",
    "postcode": "AB10 1TL",
    "phoneNumber": "01224567890",
    "emailAddress": "info@graniteestates.co.uk",
    "agentId": "AGT017",
    "isAuthorised": 1
  },
  {
    "storn": "STN004",
    "name": "Seaview Property Group",
    "houseNumber": "72",
    "addressLine1": "Marine Parade",
    "addressLine3": "Southend-on-Sea",
    "postcode": "SS1 2EN",
    "phoneNumber": "01702456789",
    "emailAddress": "enquiries@seaviewpg.co.uk",
    "agentId": "AGT018",
    "isAuthorised": 1
  },
  {
    "storn": "STN004",
    "name": "Cathedral Estates",
    "houseNumber": "4",
    "addressLine1": "Priory Road",
    "addressLine3": "Canterbury",
    "postcode": "CT1 1NJ",
    "phoneNumber": "01227443322",
    "emailAddress": "office@cathedralestates.co.uk",
    "agentId": "AGT019",
    "isAuthorised": 0
  },
  {
    "storn": "STN004",
    "name": "Midland Property Services",
    "houseNumber": "88",
    "addressLine1": "New Street",
    "addressLine3": "Coventry",
    "postcode": "CV1 5EQ",
    "phoneNumber": "02476678910",
    "emailAddress": "contact@midlandps.co.uk",
    "agentId": "AGT020",
    "isAuthorised": 1
  },
  {
    "storn": "STN004",
    "name": "Horizon Lettings",
    "houseNumber": "30",
    "addressLine1": "Broadway",
    "addressLine3": "Cardiff",
    "postcode": "CF10 1AA",
    "phoneNumber": "02920334455",
    "emailAddress": "info@horizonlettings.co.uk",
    "agentId": "AGT021",
    "isAuthorised": 1
  },
  {
    "storn": "STN004",
    "name": "Central Property Hub",
    "houseNumber": "2",
    "addressLine1": "Market Square",
    "addressLine3": "Cambridge",
    "postcode": "CB2 3QA",
    "phoneNumber": "01223456780",
    "emailAddress": "admin@centralph.co.uk",
    "agentId": "AGT022",
    "isAuthorised": 1
  },
  {
    "storn": "STN004",
    "name": "Fairview Residential",
    "houseNumber": "45",
    "addressLine1": "Meadow Lane",
    "addressLine3": "Oxford",
    "postcode": "OX1 2JD",
    "phoneNumber": "01865223344",
    "emailAddress": "info@fairviewres.co.uk",
    "agentId": "AGT023",
    "isAuthorised": 1
  },
  {
    "storn": "STN004",
    "name": "Stonebridge Lettings",
    "houseNumber": "7",
    "addressLine1": "Bridge Close",
    "addressLine3": "Exeter",
    "postcode": "EX1 1AA",
    "phoneNumber": "01392223344",
    "emailAddress": "team@stonebridgelettings.co.uk",
    "agentId": "AGT024",
    "isAuthorised": 0
  },
  {
    "storn": "STN004",
    "name": "Hillcrest Realty",
    "houseNumber": "9",
    "addressLine1": "Cedar Avenue",
    "addressLine3": "Plymouth",
    "postcode": "PL1 2TG",
    "phoneNumber": "01752678900",
    "emailAddress": "contact@hillcrestre.co.uk",
    "agentId": "AGT025",
    "isAuthorised": 1
  },
  {
    "storn": "STN004",
    "name": "Brookside Properties",
    "houseNumber": "31",
    "addressLine1": "Brook Road",
    "addressLine3": "Glasgow",
    "postcode": "G1 3AB",
    "phoneNumber": "01415553322",
    "emailAddress": "info@brooksideprops.co.uk",
    "agentId": "AGT026",
    "isAuthorised": 1
  },
  {
    "storn": "STN004",
    "name": "Hawthorn Estates",
    "houseNumber": "21",
    "addressLine1": "Grove Street",
    "addressLine3": "Edinburgh",
    "postcode": "EH2 3AA",
    "phoneNumber": "01314443322",
    "emailAddress": "office@hawthornestates.co.uk",
    "agentId": "AGT027",
    "isAuthorised": 1
  },
  {
    "storn": "STN004",
    "name": "Amber Realty",
    "houseNumber": "16",
    "addressLine1": "Queen Street",
    "addressLine3": "Belfast",
    "postcode": "BT1 3GH",
    "phoneNumber": "02890223344",
    "emailAddress": "sales@amberrealty.co.uk",
    "agentId": "AGT028",
    "isAuthorised": 0
  },
  {
    "storn": "STN004",
    "name": "Kingsgate Property Solutions",
    "houseNumber": "10A",
    "addressLine1": "George Street",
    "addressLine3": "Dundee",
    "postcode": "DD1 4EE",
    "phoneNumber": "01382678901",
    "emailAddress": "info@kingsgateps.co.uk",
    "agentId": "AGT029",
    "isAuthorised": 1
  },
  {
    "storn": "STN004",
    "name": "Silverline Homes",
    "houseNumber": "99",
    "addressLine1": "Main Road",
    "addressLine3": "Swansea",
    "postcode": "SA1 5AA",
    "phoneNumber": "01792456789",
    "emailAddress": "support@silverlinehomes.co.uk",
    "agentId": "AGT030",
    "isAuthorised": 1
  },
  {
    "storn": "STN004",
    "name": "Harborview Estates",
    "houseNumber": "22A",
    "addressLine1": "Queensway",
    "addressLine3": "Birmingham",
    "postcode": "B2 4ND",
    "phoneNumber": "01214567890",
    "emailAddress": "info@harborviewestates.co.uk",
    "agentId": "AGT031",
    "isAuthorised": 1
  },
  {
    "storn": "STN004",
    "name": "Sunrise Realty",
    "houseNumber": "8B",
    "addressLine1": "Baker Street",
    "addressLine3": "Manchester",
    "postcode": "M1 2AB",
    "phoneNumber": "01611234567",
    "emailAddress": "contact@sunriserealty.co.uk",
    "agentId": "AGT032",
    "isAuthorised": 1
  },
  {
    "storn": "STN004",
    "name": "Willow Property Group",
    "houseNumber": "14",
    "addressLine1": "Church Road",
    "addressLine3": "Leeds",
    "postcode": "LS2 7BT",
    "phoneNumber": "01134561234",
    "emailAddress": "support@willowpg.co.uk",
    "agentId": "AGT033",
    "isAuthorised": 1
  },
  {
    "storn": "STN004",
    "name": "Elm Street Agents",
    "houseNumber": "77",
    "addressLine1": "Elm Street",
    "addressLine3": "Liverpool",
    "postcode": "L1 3DF",
    "phoneNumber": "01517991234",
    "emailAddress": "hello@elmstreetagents.co.uk",
    "agentId": "AGT034",
    "isAuthorised": 1
  },
  {
    "storn": "STN004",
    "name": "Parkview Property Consultants",
    "houseNumber": "33",
    "addressLine1": "High Street",
    "addressLine3": "Bristol",
    "postcode": "BS1 4AA",
    "phoneNumber": "01179876543",
    "emailAddress": "info@parkviewpc.co.uk",
    "agentId": "AGT035",
    "isAuthorised": 0
  }
]
